ADRAS-J                 
1 58992U 24034A   24200.91985466  .00006748  00000+0  61784-3 0  9995
2 58992  98.2125 175.3895 0043196 306.2227  53.5002 14.94596146 22609
